{
    "links": {
        "self": "http://www.neowsapp.com/rest/v1/neo/3792432?api_key=iIulBulltgU6a56xZRHN4H3l9WmuAYTsLGpBGhQ2"
    },
    "id": "3792432",
    "neo_reference_id": "3792432",
    "name": "(2017 XX61)",
    "designation": "2017 XX61",
    "nasa_jpl_url": "http://ssd.jpl.nasa.gov/sbdb.cgi?sstr=3792432",
    "absolute_magnitude_h": 26.6,
    "estimated_diameter": {
        "kilometers": {
            "estimated_diameter_min": 0.0127219879,
            "estimated_diameter_max": 0.0284472297
        },
        "meters": {
            "estimated_diameter_min": 12.7219878539,
            "estimated_diameter_max": 28.4472296503
        },
        "miles": {
            "estimated_diameter_min": 0.0079050743,
            "estimated_diameter_max": 0.0176762835
        },
        "feet": {
            "estimated_diameter_min": 41.7388066307,
            "estimated_diameter_max": 93.330808926
        }
    },
    "is_potentially_hazardous_asteroid": false,
    "close_approach_data": [
        {
            "close_approach_date": "2017-12-18",
            "close_approach_date_full": "2017-Dec-18 14:50",
            "epoch_date_close_approach": 1513608600000,
            "relative_velocity": {
                "kilometers_per_second": "15.5894203588",
                "kilometers_per_hour": "56121.9132918589",
                "miles_per_hour": "34871.9744007109"
            },
            "miss_distance": {
                "astronomical": "0.0209556084",
                "lunar": "8.1517316676",
                "kilometers": "3134914.381194108",
                "miles": "1947945.4690423704"
            },
            "orbiting_body": "Earth"
        },
        {
            "close_approach_date": "2018-05-04",
            "close_approach_date_full": "2018-May-04 06:35",
            "epoch_date_close_approach": 1525415700000,
            "relative_velocity": {
                "kilometers_per_second": "19.0993314042",
                "kilometers_per_hour": "68757.5930551618",
                "miles_per_hour": "42723.2944180809"
            },
            "miss_distance": {
                "astronomical": "0.0785607265",
                "lunar": "30.5601226085",
                "kilometers": "11752517.350052555",
                "miles": "7302675.651753059"
            },
            "orbiting_body": "Mars"
        },
        {
            "close_approach_date": "2105-05-20",
            "close_approach_date_full": "2105-May-20 05:28",
            "epoch_date_close_approach": 4272240480000,
            "relative_velocity": {
                "kilometers_per_second": "25.4383446539",
                "kilometers_per_hour": "91578.0407539205",
                "miles_per_hour": "56903.0331562346"
            },
            "miss_distance": {
                "astronomical": "0.3678222687",
                "lunar": "143.0828625243",
                "kilometers": "55025427.936087669",
                "miles": "34191215.4517570722"
            },
            "orbiting_body": "Earth"
        }
    ],
    "orbital_data": {
        "orbit_id": "1",
        "orbit_determination_date": "2017-12-17 10:42:19",
        "first_observation_date": "2017-12-15",
        "last_observation_date": "2017-12-16",
        "data_arc_in_days": 1,
        "observations_used": 24,
        "orbit_uncertainty": "8",
        "minimum_orbit_intersection": ".0161759",
        "jupiter_tisserand_invariant": "3.535",
        "epoch_osculation": "2458103.5",
        "eccentricity": ".6100135159919199",
        "semi_major_axis": "2.037163784920053",
        "inclination": "8.42607437319019",
        "ascending_node_longitude": "81.75530961323653",
        "orbital_period": "1062.031375882926",
        "perihelion_distance": ".7944663418295643",
        "perihelion_argument": "67.33956156130468",
        "aphelion_distance": "3.279861228010542",
        "perihelion_time": "2458146.922406858570",
        "mean_anomaly": "345.2809749089669",
        "mean_motion": ".338973036178627",
        "equinox": "J2000",
        "orbit_class": {
            "orbit_class_type": "APO",
            "orbit_class_description": "Near-Earth asteroid orbits which cross the Earth’s orbit similar to that of 1862 Apollo",
            "orbit_class_range": "a (semi-major axis) > 1.0 AU; q (perihelion) < 1.017 AU"
        }
    },
    "is_sentry_object": false
}